ONEWEB-0417             
1 50492U 21132Z   25218.89819874  .00000049  00000+0  92433-4 0  9998
2 50492  87.9129  37.8906 0001701  97.1529 262.9796 13.18685539180181
ONEWEB-0418             
1 50493U 21132AA  25218.90794141  .00000085  00000+0  18191-3 0  9998
2 50493  87.9128  37.8749 0001719 102.4097 257.7227 13.18687070180245
ONEWEB-0419             
1 50494U 21132AB  25218.92623387  .00000157  00000+0  36427-3 0  9996
2 50494  87.9126  37.8734 0001482  93.9911 266.1390 13.18686926180169
ONEWEB-0420             
1 50495U 21132AC  25218.89158852  .00000144  00000+0  33375-3 0  9998
2 50495  87.9128  37.8901 0001980  81.2909 278.8447 13.18686054180152
ONEWEB-0421             
1 50496U 21132AD  25218.88499538  .00000070  00000+0  14359-3 0  9996
2 50496  87.9129  37.8846 0002077  94.3059 265.8310 13.18685279180198
ONEWEB-0424             
1 50497U 21132AE  25218.92127936  .00000072  00000+0  14953-3 0  9994
2 50497  87.9128  37.8714 0001358  87.8327 272.2961 13.18687176180224
ONEWEB-0426             
1 50498U 21132AF  25218.88169147  .00000112  00000+0  25104-3 0  9995
2 50498  87.9126  37.8729 0002216 108.2182 251.9191 13.18685313180163
ONEWEB-0427             
1 50499U 21132AG  25218.91962934  .00000067  00000+0  13844-3 0  9992
2 50499  87.9125  37.8546 0001693  96.9214 263.2111 13.18687112180197
ONEWEB-0429             
1 50500U 21132AH  25218.90644263  .00000058  00000+0  11488-3 0  9998
2 50500  87.9131  37.8863 0001850  85.6387 274.4957 13.18686251180162
ONEWEB-0430             
1 50501U 21132AJ  25218.89489139  .00000055  00000+0  10556-3 0  9998
2 50501  87.9131  37.8825 0001605  82.6870 277.4445 13.18685443180205
ONEWEB-0432             
1 50502U 21132AK  25218.77470587  .00000018  00000+0  13165-4 0  9992
2 50502  87.9121  37.8878 0001053 114.2065 245.9177 13.18687552180146
ONEWEB-0440             
1 50503U 21132AL  25218.91469658  .00000006  00000+0 -17698-4 0  9999
2 50503  87.9129  37.8677 0002221  88.2610 271.8777 13.18686710180156
ONEWEB-0450             
1 50504U 21132AM  25218.90824280  .00000053  00000+0  10083-3 0  9996
2 50504  87.9127  37.8951 0001853  81.0367 279.0975 13.18685510180180
ONEWEB-0410             
1 51622U 22012A   25218.91747544  .00000005  00000+0 -19633-4 0  9993
2 51622  87.9037  68.3847 0002063 129.5504 230.5810 13.17648647172315
ONEWEB-0411             
1 51623U 22012B   25218.95461368  .00000419  00000+0  11632-2 0  9992
2 51623  87.8794  98.9430 0001511  59.7942 300.3335 13.10375432168134
ONEWEB-0415             
1 51624U 22012C   25218.95129061  .00000292  00000+0  79910-3 0  9997
2 51624  87.8793  98.9468 0001572  69.1558 290.9737 13.10375680168135
ONEWEB-0416             
1 51625U 22012D   25218.96291667  .00000670  00000+0  18827-2 0  9990
2 51625  87.8793  98.9631 0001713  78.1136 282.0183 13.10373264168174
