[{"OBJECT_NAME":"ONEWEB-0417","OBJECT_ID":"2021-132Z","EPOCH":"2025-08-06T21:33:24.371136","MEAN_MOTION":13.18685539,"ECCENTRICITY":0.0001701,"INCLINATION":87.9129,"RA_OF_ASC_NODE":37.8906,"ARG_OF_PERICENTER":97.1529,"MEAN_ANOMALY":262.9796,"EPHEMERIS_TYPE":0,"CLASSIFICATION_TYPE":"U","NORAD_CAT_ID":50492,"ELEMENT_SET_NO":999,"REV_AT_EPOCH":18018,"BSTAR":9.2432661e-5,"MEAN_MOTION_DOT":4.9e-7,"MEAN_MOTION_DDOT":0},{"OBJECT_NAME":"ONEWEB-0418","OBJECT_ID":"2021-132AA","EPOCH":"2025-08-06T21:47:26.137824","MEAN_MOTION":13.1868707,"ECCENTRICITY":0.00017195,"INCLINATION":87.9128,"RA_OF_ASC_NODE":37.8749,"ARG_OF_PERICENTER":102.4097,"MEAN_ANOMALY":257.7227,"EPHEMERIS_TYPE":0,"CLASSIFICATION_TYPE":"U","NORAD_CAT_ID":50493,"ELEMENT_SET_NO":999,"REV_AT_EPOCH":18024,"BSTAR":0.0001819068,"MEAN_MOTION_DOT":8.5e-7,"MEAN_MOTION_DDOT":0},{"OBJECT_NAME":"ONEWEB-0419","OBJECT_ID":"2021-132AB","EPOCH":"2025-08-06T22:13:46.606368","MEAN_MOTION":13.18686926,"ECCENTRICITY":0.00014823,"INCLINATION":87.9126,"RA_OF_ASC_NODE":37.8734,"ARG_OF_PERICENTER":93.9911,"MEAN_ANOMALY":266.139,"EPHEMERIS_TYPE":0,"CLASSIFICATION_TYPE":"U","NORAD_CAT_ID":50494,"ELEMENT_SET_NO":999,"REV_AT_EPOCH":18016,"BSTAR":0.00036426906,"MEAN_MOTION_DOT":1.57e-6,"MEAN_MOTION_DDOT":0},{"OBJECT_NAME":"ONEWEB-0420","OBJECT_ID":"2021-132AC","EPOCH":"2025-08-06T21:23:53.248128","MEAN_MOTION":13.18686054,"ECCENTRICITY":0.000198,"INCLINATION":87.9128,"RA_OF_ASC_NODE":37.8901,"ARG_OF_PERICENTER":81.2909,"MEAN_ANOMALY":278.8447,"EPHEMERIS_TYPE":0,"CLASSIFICATION_TYPE":"U","NORAD_CAT_ID":50495,"ELEMENT_SET_NO":999,"REV_AT_EPOCH":18015,"BSTAR":0.00033374958,"MEAN_MOTION_DOT":1.44e-6,"MEAN_MOTION_DDOT":0},{"OBJECT_NAME":"ONEWEB-0421","OBJECT_ID":"2021-132AD","EPOCH":"2025-08-06T21:14:23.600832","MEAN_MOTION":13.18685279,"ECCENTRICITY":0.00020772,"INCLINATION":87.9129,"RA_OF_ASC_NODE":37.8846,"ARG_OF_PERICENTER":94.3059,"MEAN_ANOMALY":265.831,"EPHEMERIS_TYPE":0,"CLASSIFICATION_TYPE":"U","NORAD_CAT_ID":50496,"ELEMENT_SET_NO":999,"REV_AT_EPOCH":18019,"BSTAR":0.00014358705,"MEAN_MOTION_DOT":7.0e-7,"MEAN_MOTION_DDOT":0},{"OBJECT_NAME":"ONEWEB-0424","OBJECT_ID":"2021-132AE","EPOCH":"2025-08-06T22:06:38.536704","MEAN_MOTION":13.18687176,"ECCENTRICITY":0.00013583,"INCLINATION":87.9128,"RA_OF_ASC_NODE":37.8714,"ARG_OF_PERICENTER":87.8327,"MEAN_ANOMALY":272.2961,"EPHEMERIS_TYPE":0,"CLASSIFICATION_TYPE":"U","NORAD_CAT_ID":50497,"ELEMENT_SET_NO":999,"REV_AT_EPOCH":18022,"BSTAR":0.00014953483,"MEAN_MOTION_DOT":7.2e-7,"MEAN_MOTION_DDOT":0},{"OBJECT_NAME":"ONEWEB-0426","OBJECT_ID":"2021-132AF","EPOCH":"2025-08-06T21:09:38.143008","MEAN_MOTION":13.18685313,"ECCENTRICITY":0.0002216,"INCLINATION":87.9126,"RA_OF_ASC_NODE":37.8729,"ARG_OF_PERICENTER":108.2182,"MEAN_ANOMALY":251.9191,"EPHEMERIS_TYPE":0,"CLASSIFICATION_TYPE":"U","NORAD_CAT_ID":50498,"ELEMENT_SET_NO":999,"REV_AT_EPOCH":18016,"BSTAR":0.00025103562,"MEAN_MOTION_DOT":1.12e-6,"MEAN_MOTION_DDOT":0},{"OBJECT_NAME":"ONEWEB-0427","OBJECT_ID":"2021-132AG","EPOCH":"2025-08-06T22:04:15.974976","MEAN_MOTION":13.18687112,"ECCENTRICITY":0.00016939,"INCLINATION":87.9125,"RA_OF_ASC_NODE":37.8546,"ARG_OF_PERICENTER":96.9214,"MEAN_ANOMALY":263.2111,"EPHEMERIS_TYPE":0,"CLASSIFICATION_TYPE":"U","NORAD_CAT_ID":50499,"ELEMENT_SET_NO":999,"REV_AT_EPOCH":18019,"BSTAR":0.00013843557,"MEAN_MOTION_DOT":6.7e-7,"MEAN_MOTION_DDOT":0},{"OBJECT_NAME":"ONEWEB-0429","OBJECT_ID":"2021-132AH","EPOCH":"2025-08-06T21:45:16.643232","MEAN_MOTION":13.18686251,"ECCENTRICITY":0.00018504,"INCLINATION":87.9131,"RA_OF_ASC_NODE":37.8863,"ARG_OF_PERICENTER":85.6387,"MEAN_ANOMALY":274.4957,"EPHEMERIS_TYPE":0,"CLASSIFICATION_TYPE":"U","NORAD_CAT_ID":50500,"ELEMENT_SET_NO":999,"REV_AT_EPOCH":18016,"BSTAR":0.00011487906,"MEAN_MOTION_DOT":5.8e-7,"MEAN_MOTION_DDOT":0},{"OBJECT_NAME":"ONEWEB-0430","OBJECT_ID":"2021-132AJ","EPOCH":"2025-08-06T21:28:38.616096","MEAN_MOTION":13.18685443,"ECCENTRICITY":0.00016052,"INCLINATION":87.9131,"RA_OF_ASC_NODE":37.8825,"ARG_OF_PERICENTER":82.687,"MEAN_ANOMALY":277.4445,"EPHEMERIS_TYPE":0,"CLASSIFICATION_TYPE":"U","NORAD_CAT_ID":50501,"ELEMENT_SET_NO":999,"REV_AT_EPOCH":18020,"BSTAR":0.00010556477,"MEAN_MOTION_DOT":5.5e-7,"MEAN_MOTION_DDOT":0},{"OBJECT_NAME":"ONEWEB-0432","OBJECT_ID":"2021-132AK","EPOCH":"2025-08-06T18:35:34.587168","MEAN_MOTION":13.18687552,"ECCENTRICITY":0.00010538,"INCLINATION":87.9121,"RA_OF_ASC_NODE":37.8878,"ARG_OF_PERICENTER":114.2065,"MEAN_ANOMALY":245.9177,"EPHEMERIS_TYPE":0,"CLASSIFICATION_TYPE":"U","NORAD_CAT_ID":50502,"ELEMENT_SET_NO":999,"REV_AT_EPOCH":18014,"BSTAR":1.3165004e-5,"MEAN_MOTION_DOT":1.8e-7,"MEAN_MOTION_DDOT":0},{"OBJECT_NAME":"ONEWEB-0440","OBJECT_ID":"2021-132AL","EPOCH":"2025-08-06T21:57:09.784512","MEAN_MOTION":13.1868671,"ECCENTRICITY":0.00022211,"INCLINATION":87.9129,"RA_OF_ASC_NODE":37.8677,"ARG_OF_PERICENTER":88.261,"MEAN_ANOMALY":271.8777,"EPHEMERIS_TYPE":0,"CLASSIFICATION_TYPE":"U","NORAD_CAT_ID":50503,"ELEMENT_SET_NO":999,"REV_AT_EPOCH":18015,"BSTAR":-1.7697866e-5,"MEAN_MOTION_DOT":6.0e-8,"MEAN_MOTION_DDOT":0},{"OBJECT_NAME":"ONEWEB-0450","OBJECT_ID":"2021-132AM","EPOCH":"2025-08-06T21:47:52.177920","MEAN_MOTION":13.1868551,"ECCENTRICITY":0.00018531,"INCLINATION":87.9127,"RA_OF_ASC_NODE":37.8951,"ARG_OF_PERICENTER":81.0367,"MEAN_ANOMALY":279.0975,"EPHEMERIS_TYPE":0,"CLASSIFICATION_TYPE":"U","NORAD_CAT_ID":50504,"ELEMENT_SET_NO":999,"REV_AT_EPOCH":18018,"BSTAR":0.00010083062,"MEAN_MOTION_DOT":5.3e-7,"MEAN_MOTION_DDOT":0},{"OBJECT_NAME":"ONEWEB-0410","OBJECT_ID":"2022-012A","EPOCH":"2025-08-06T22:01:09.878016","MEAN_MOTION":13.17648647,"ECCENTRICITY":0.00020637,"INCLINATION":87.9037,"RA_OF_ASC_NODE":68.3847,"ARG_OF_PERICENTER":129.5504,"MEAN_ANOMALY":230.581,"EPHEMERIS_TYPE":0,"CLASSIFICATION_TYPE":"U","NORAD_CAT_ID":51622,"ELEMENT_SET_NO":999,"REV_AT_EPOCH":17231,"BSTAR":-1.9633223e-5,"MEAN_MOTION_DOT":5.0e-8,"MEAN_MOTION_DDOT":0},{"OBJECT_NAME":"ONEWEB-0411","OBJECT_ID":"2022-012B","EPOCH":"2025-08-06T22:54:38.621952","MEAN_MOTION":13.10375432,"ECCENTRICITY":0.0001511,"INCLINATION":87.8794,"RA_OF_ASC_NODE":98.943,"ARG_OF_PERICENTER":59.7942,"MEAN_ANOMALY":300.3335,"EPHEMERIS_TYPE":0,"CLASSIFICATION_TYPE":"U","NORAD_CAT_ID":51623,"ELEMENT_SET_NO":999,"REV_AT_EPOCH":16813,"BSTAR":0.0011631598,"MEAN_MOTION_DOT":4.19e-6,"MEAN_MOTION_DDOT":0},{"OBJECT_NAME":"ONEWEB-0415","OBJECT_ID":"2022-012C","EPOCH":"2025-08-06T22:49:51.508704","MEAN_MOTION":13.1037568,"ECCENTRICITY":0.00015722,"INCLINATION":87.8793,"RA_OF_ASC_NODE":98.9468,"ARG_OF_PERICENTER":69.1558,"MEAN_ANOMALY":290.9737,"EPHEMERIS_TYPE":0,"CLASSIFICATION_TYPE":"U","NORAD_CAT_ID":51624,"ELEMENT_SET_NO":999,"REV_AT_EPOCH":16813,"BSTAR":0.0007991016,"MEAN_MOTION_DOT":2.92e-6,"MEAN_MOTION_DDOT":0},{"OBJECT_NAME":"ONEWEB-0416","OBJECT_ID":"2022-012D","EPOCH":"2025-08-06T23:06:36.000288","MEAN_MOTION":13.10373264,"ECCENTRICITY":0.00017135,"INCLINATION":87.8793,"RA_OF_ASC_NODE":98.9631,"ARG_OF_PERICENTER":78.1136,"MEAN_ANOMALY":282.0183,"EPHEMERIS_TYPE":0,"CLASSIFICATION_TYPE":"U","NORAD_CAT_ID":51625,"ELEMENT_SET_NO":999,"REV_AT_EPOCH":16817,"BSTAR":0.0018826691,"MEAN_MOTION_DOT":6.7e-6,"MEAN_MOTION_DDOT":0}]
